OBJECT_NAME,OBJECT_ID,EPOCH,MEAN_MOTION,ECCENTRICITY,INCLINATION,RA_OF_ASC_NODE,ARG_OF_PERICENTER,MEAN_ANOMALY,EPHEMERIS_TYPE,CLASSIFICATION_TYPE,NORAD_CAT_ID,ELEMENT_SET_NO,REV_AT_EPOCH,BSTAR,MEAN_MOTION_DOT,MEAN_MOTION_DDOT
LEMUR-1,2014-033AL,2026-07-23T04:48:56.177280,14.85354380,.00471617,97.7918,353.2169,321.2550,38.5285,0,U,40044,999,65081,.16494452E-3,.1391E-4,0
LEMUR-2-GREENBERG,2017-042N,2026-07-22T22:46:34.505472,15.32339048,.00076392,97.3839,24.4400,227.5103,132.5494,0,U,42837,999,49386,.62365481E-3,.19439E-3,0
LEMUR-2-ANDIS,2017-042P,2026-07-22T22:59:15.651456,15.36171560,.00076276,97.3692,24.7629,226.5024,133.5586,0,U,42838,999,49394,.72180988E-3,.25435E-3,0
LEMUR-2-MONSON,2017-042Q,2026-07-23T02:26:39.512544,15.28924414,.00058613,97.4103,24.5078,213.0819,147.0055,0,U,42839,999,49365,.61671021E-3,.17282E-3,0
LEMUR-2-FURIAUS,2017-042R,2026-07-22T23:12:36.620928,15.31323478,.00056366,97.3787,22.3327,296.2967,63.7695,0,U,42840,999,49368,.68329855E-3,.20637E-3,0
LEMUR-2-PETERG,2017-042S,2026-07-22T23:07:05.989728,15.35258064,.00039187,97.4004,29.0909,189.1114,171.0059,0,U,42841,999,49392,.72385962E-3,.24755E-3,0
LEMUR-2-DEMBITZ,2017-042T,2026-07-23T07:31:43.886496,15.31299422,.00053381,97.3838,25.7267,238.2152,121.8570,0,U,42842,999,49387,.57764623E-3,.17413E-3,0
LEMUR-2-ZACHARY,2017-042W,2026-07-23T01:00:44.458272,15.53318099,.00030784,97.3580,36.5204,214.2552,145.8503,0,U,42845,999,49476,.94823677E-3,.60078E-3,0
LEMUR-2-AMANDA-SVANTE,2021-034B,2026-07-23T04:51:38.467584,15.36348536,.00047863,97.5742,283.4904,125.9635,234.2053,0,U,48269,999,28658,.10329534E-2,.36673E-3,0
LEMUR-2-SPECIAL-K,2021-034F,2026-07-23T04:55:39.217728,15.78328874,.00059947,97.5611,294.0251,210.7162,149.3754,0,U,48273,999,28734,.19480771E-2,.347401E-2,0
LEMUR-2-EMBRIONOVIS,2023-084AQ,2026-07-22T09:36:39.168576,15.38367572,.00088903,97.6329,348.9822,180.3852,179.7387,0,U,56970,999,17309,.39879839E-3,.1503E-3,0
LEMUR-2-DEVERILL-M-T,2023-100F,2026-07-23T02:04:41.133216,15.41393755,.00049572,99.4450,253.2624,264.4607,95.6068,0,U,57391,999,16677,.73544425E-3,.30709E-3,0
LEMUR-2-BASS,2023-174D,2026-07-23T04:29:04.289280,15.44198508,.00070848,97.3838,289.4295,53.6209,306.5692,0,U,58259,999,15091,.40858882E-3,.18695E-3,0
LEMUR-2-JK0903EM1407,2023-174CJ,2026-07-23T04:07:48.043776,15.53393550,.00029303,97.3918,295.7020,358.1516,1.9726,0,U,58336,999,15131,.45943992E-3,.29024E-3,0
LEMUR-2-MJR092620,2023-174CN,2026-07-23T03:46:34.977792,15.46086523,.00045133,97.3967,294.8801,359.8733,0.2514,0,U,58340,999,15120,.41510397E-3,.2025E-3,0
LEMUR-2-NIMBUS2000,2024-022A,2026-07-23T02:59:17.429856,15.41371925,.00078827,97.4083,54.6075,0.5027,359.6227,0,U,58899,999,13780,.58317751E-3,.24329E-3,0
LEMUR-2-VALHALLA,2024-022B,2026-07-23T03:11:10.020768,15.40670183,.0008368,97.4083,54.5774,355.7058,4.4115,0,U,58900,999,13780,.41338018E-3,.1681E-3,0
LEMUR-2-CAEL,2024-022E,2026-07-23T02:40:15.237408,15.42056080,.00062741,97.4063,55.5568,339.0900,21.0090,0,U,58903,999,13787,.42688584E-3,.18174E-3,0
LEMUR-2-JOHNNYTRUONG,2024-043BA,2026-07-23T05:19:14.129184,15.63082317,.00036129,97.5397,358.2363,67.5415,292.6226,0,U,59146,999,13366,.51848002E-3,.47236E-3,0
LEMUR-2-TOMATOKECHUP,2024-149D,2026-07-23T04:32:37.253184,15.36706847,.00034583,97.3787,286.3428,108.0349,252.1272,0,U,60471,999,10769,.3274959E-3,.11667E-3,0
LEMUR-2-STELLA,2024-149BT,2026-07-23T05:04:35.407488,15.12495058,.00014812,97.6726,286.8402,122.3679,237.7695,0,U,60533,999,10594,.63844612E-3,.11056E-3,0
LEMUR-2-MARHISYAM,2024-149BW,2026-07-23T04:56:03.792480,15.11887017,.00020128,97.6869,287.3188,55.8862,304.2559,0,U,60536,999,10592,.56526551E-3,.9615E-4,0
LEMUR-2-AHMED-ASRAR,2024-149DN,2026-07-23T04:53:43.971360,15.13436075,.0001904,97.6992,289.5523,180.0962,180.0269,0,U,60576,999,10601,.68686351E-3,.12218E-3,0
LEMUR-2-LLOYD,2024-149DP,2026-07-23T04:01:55.677792,15.09860548,.00040849,97.6738,285.3299,50.4202,309.7387,0,U,60577,999,10582,.68074116E-3,.10964E-3,0
LEMUR-2-SQUIRRELCOMM,2024-149DQ,2026-07-23T04:03:12.636000,15.07509146,.00039079,97.6704,284.9731,289.7571,70.3235,0,U,60578,999,10582,.41060622E-3,.6172E-4,0
LEMUR-2-SIERRINI,2024-149DR,2026-07-23T04:04:20.106624,15.11635996,.00060331,97.6834,286.9364,69.5119,290.6758,0,U,60579,999,10589,.71457258E-3,.12096E-3,0
LEMUR-2-WILSON,2025-009CP,2026-07-23T03:57:47.613024,14.95300842,.00015377,97.7016,281.9988,276.7410,83.3636,0,U,62694,999,8273,.20949158E-3,.2251E-4,0
LEMUR-2-STAR-FOX,2025-009CR,2026-07-23T04:23:42.442368,15.02923009,.00013954,97.6905,285.5326,8.2917,351.8330,0,U,62696,999,8296,.60794031E-3,.8107E-4,0
LEMUR-2-ARIANNA,2025-009CU,2026-07-23T04:21:28.574208,15.02927089,.00017553,97.6849,285.2770,20.3119,339.8175,0,U,62699,999,8296,.6111167E-3,.8151E-4,0
